[{"OBJECT_NAME":"QIANFAN-92","OBJECT_ID":"2025-233B","EPOCH":"2026-03-09T23:18:46.264320","MEAN_MOTION":13.51006079,"ECCENTRICITY":0.00019643,"INCLINATION":88.9921,"RA_OF_ASC_NODE":53.2063,"ARG_OF_PERICENTER":85.6423,"MEAN_ANOMALY":274.4953,"EPHEMERIS_TYPE":0,"CLASSIFICATION_TYPE":"U","NORAD_CAT_ID":66034,"ELEMENT_SET_NO":999,"REV_AT_EPOCH":1978,"BSTAR":4.7358254e-5,"MEAN_MOTION_DOT":4.3e-7,"MEAN_MOTION_DDOT":0},{"OBJECT_NAME":"SL-16 DEB","OBJECT_ID":"1988-102E","EPOCH":"2026-03-09T17:36:07.282368","MEAN_MOTION":13.75062529,"ECCENTRICITY":0.01959244,"INCLINATION":71.0199,"RA_OF_ASC_NODE":300.3832,"ARG_OF_PERICENTER":154.9516,"MEAN_ANOMALY":278.7922,"EPHEMERIS_TYPE":0,"CLASSIFICATION_TYPE":"U","NORAD_CAT_ID":19658,"ELEMENT_SET_NO":999,"REV_AT_EPOCH":86992,"BSTAR":0.00014661219,"MEAN_MOTION_DOT":1.19e-6,"MEAN_MOTION_DDOT":0}]
